OBJECT_NAME,OBJECT_ID,EPOCH,MEAN_MOTION,ECCENTRICITY,INCLINATION,RA_OF_ASC_NODE,ARG_OF_PERICENTER,MEAN_ANOMALY,EPHEMERIS_TYPE,CLASSIFICATION_TYPE,NORAD_CAT_ID,ELEMENT_SET_NO,REV_AT_EPOCH,BSTAR,MEAN_MOTION_DOT,MEAN_MOTION_DDOT
IONOSFERA-M 2,2024-199B,2026-06-18T21:58:54.194592,14.22757899,.00009758,98.7170,42.9805,38.2144,321.9103,0,U,61736,999,13107,.38013955E-4,.41E-6,0
PRSC-EO1,2025-012A,2026-06-18T23:19:33.564864,15.17626712,.0004876,97.4223,242.3972,244.5087,115.5642,0,U,62725,999,7846,.25686913E-3,.5102E-4,0
BIOMASS,2025-090A,2026-06-18T11:10:04.238112,14.67536694,.0001346,98.0739,356.7637,96.2561,263.8797,0,U,63772,999,6087,.363E-4,.158E-5,0
GOSAT-GW (IBUKI GW),2025-141A,2026-06-18T23:06:31.811616,14.67554104,.00014418,98.0573,107.2512,83.4980,276.6389,0,U,64694,999,5210,.13197292E-4,.27E-6,0
IONOSFERA-M 3,2025-155A,2026-06-18T22:26:36.976416,14.21486712,.00011117,98.6032,131.7962,153.8280,206.2954,0,U,64876,999,4665,.37483275E-4,.39E-6,0
IONOSFERA-M 4,2025-155B,2026-06-18T23:16:47.054784,14.21488878,.00011057,98.6030,131.7476,120.1534,239.9753,0,U,64877,999,4665,.33279544E-4,.3E-6,0
MICROCARB,2025-156A,2026-06-18T18:44:21.613344,14.72326866,.00149765,97.9832,246.8897,266.6573,93.2921,0,U,64899,999,4820,.68318778E-4,.383E-5,0
CO3D 3,2025-156B,2026-06-18T23:09:23.027040,15.20206366,.00015731,97.4329,248.6325,129.0767,231.0608,0,U,64900,999,4980,.16444439E-3,.3494E-4,0
CO3D 4,2025-156C,2026-06-18T20:00:01.358784,15.20208932,.00001122,97.4333,248.5023,3.6734,356.4502,0,U,64901,999,4978,.13216641E-4,.219E-5,0
CO3D 2,2025-156D,2026-06-18T22:21:35.144064,15.20207727,.00015008,97.4328,248.4987,106.7025,253.4375,0,U,64902,999,4979,.15045733E-3,.3191E-4,0
CO3D 1,2025-156E,2026-06-18T22:21:48.354624,15.20207112,.00013143,97.4327,248.4990,111.9518,248.1857,0,U,64903,999,4979,.18378508E-3,.3914E-4,0
PRSC-S1,2025-164A,2026-06-18T23:42:14.343264,15.06471300,.00063176,41.1305,277.6723,355.9258,4.1504,0,U,65055,999,4870,.24786145E-3,.3548E-4,0
SENTINEL-6B,2025-264A,2026-06-18T15:32:11.061600,12.80929961,.00080036,66.0397,132.1456,269.1955,90.8143,0,U,66514,999,2735,-.7355951E-5,-.63E-6,0
CAS500-3,2025-274F,2026-06-18T18:16:38.657856,14.88324084,.00067952,97.7445,97.7768,106.1386,254.0579,0,U,66655,999,3038,.11110963E-3,.974E-5,0
CSG-3,2026-001A,2026-06-18T22:54:12.659616,14.82154773,.00013796,97.8888,353.5305,94.7565,265.3806,0,U,67304,999,2472,.36242241E-4,.236E-5,0
PRSC-E03,2026-092A,2026-06-18T21:52:25.202784,15.06675883,.00034057,38.0012,79.5128,18.5861,341.5025,0,U,68835,999,821,.15001035E-3,.216E-4,0
CAS500-2,2026-100AK,2026-06-18T11:14:21.030144,15.20602375,.0010572,97.4073,67.3009,30.8412,329.3442,0,U,69013,999,700,.23876E-3,.5172E-4,0
