IONOSFERA-M 2           
1 61736U 24199B   26169.91590503  .00000041  00000+0  38014-4 0  9998
2 61736  98.7170  42.9805 0000975  38.2144 321.9103 14.22757899131073
PRSC-EO1                
1 62725U 25012A   26169.97191626  .00005102  00000+0  25687-3 0  9995
2 62725  97.4223 242.3972 0004876 244.5087 115.5642 15.17626712 78462
BIOMASS                 
1 63772U 25090A   26169.46532683  .00000158  00000+0  36300-4 0  9991
2 63772  98.0739 356.7637 0001346  96.2561 263.8797 14.67536694 60877
GOSAT-GW (IBUKI GW)     
1 64694U 25141A   26169.96286819  .00000027  00000+0  13197-4 0  9998
2 64694  98.0573 107.2512 0001441  83.4980 276.6389 14.67554104 52109
IONOSFERA-M 3           
1 64876U 25155A   26169.93515019  .00000039  00000+0  37483-4 0  9996
2 64876  98.6032 131.7962 0001111 153.8280 206.2954 14.21486712 46656
IONOSFERA-M 4           
1 64877U 25155B   26169.96998906  .00000030  00000+0  33280-4 0  9992
2 64877  98.6030 131.7476 0001105 120.1534 239.9753 14.21488878 46652
MICROCARB               
1 64899U 25156A   26169.78080571  .00000383  00000+0  68319-4 0  9999
2 64899  97.9832 246.8897 0014976 266.6573  93.2921 14.72326866 48207
CO3D 3                  
1 64900U 25156B   26169.96484985  .00003494  00000+0  16444-3 0  9996
2 64900  97.4329 248.6325 0001573 129.0767 231.0608 15.20206366 49805
CO3D 4                  
1 64901U 25156C   26169.83334906  .00000219  00000+0  13217-4 0  9998
2 64901  97.4333 248.5023 0000112   3.6734 356.4502 15.20208932 49787
CO3D 2                  
1 64902U 25156D   26169.93165676  .00003191  00000+0  15046-3 0  9999
2 64902  97.4328 248.4987 0001500 106.7025 253.4375 15.20207727 49796
CO3D 1                  
1 64903U 25156E   26169.93180966  .00003914  00000+0  18379-3 0  9994
2 64903  97.4327 248.4990 0001314 111.9518 248.1857 15.20207112 49792
PRSC-S1                 
1 65055U 25164A   26169.98766601  .00003548  00000+0  24786-3 0  9995
2 65055  41.1305 277.6723 0006317 355.9258   4.1504 15.06471300 48705
SENTINEL-6B             
1 66514U 25264A   26169.64735025 -.00000063  00000+0 -73560-5 0  9993
2 66514  66.0397 132.1456 0008003 269.1955  90.8143 12.80929961 27354
CAS500-3                
1 66655U 25274F   26169.76155854  .00000974  00000+0  11111-3 0  9990
2 66655  97.7445  97.7768 0006795 106.1386 254.0579 14.88324084 30380
CSG-3                   
1 67304U 26001A   26169.95431319  .00000236  00000+0  36242-4 0  9999
2 67304  97.8888 353.5305 0001379  94.7565 265.3806 14.82154773 24727
PRSC-E03                
1 68835U 26092A   26169.91140281  .00002160  00000+0  15001-3 0  9997
2 68835  38.0012  79.5128 0003405  18.5861 341.5025 15.06675883  8219
CAS500-2                
1 69013U 26100AK  26169.46829896  .00005172  00000+0  23876-3 0  9997
2 69013  97.4073  67.3009 0010572  30.8412 329.3442 15.20602375  7004
